[{"OBJECT_NAME":"KUIPER-00077","OBJECT_ID":"2025-151J","EPOCH":"2026-03-09T19:52:37.813152","MEAN_MOTION":14.80197781,"ECCENTRICITY":8.795e-5,"INCLINATION":51.9019,"RA_OF_ASC_NODE":297.467,"ARG_OF_PERICENTER":199.7162,"MEAN_ANOMALY":160.3766,"EPHEMERIS_TYPE":0,"CLASSIFICATION_TYPE":"U","NORAD_CAT_ID":64824,"ELEMENT_SET_NO":999,"REV_AT_EPOCH":3536,"BSTAR":0.00060451544,"MEAN_MOTION_DOT":4.419e-5,"MEAN_MOTION_DDOT":0},{"OBJECT_NAME":"FENGYUN 1C DEB","OBJECT_ID":"1999-025EA","EPOCH":"2026-03-09T21:25:08.488704","MEAN_MOTION":14.56795996,"ECCENTRICITY":0.01928778,"INCLINATION":98.8218,"RA_OF_ASC_NODE":190.418,"ARG_OF_PERICENTER":17.5828,"MEAN_ANOMALY":343.1923,"EPHEMERIS_TYPE":0,"CLASSIFICATION_TYPE":"U","NORAD_CAT_ID":29832,"ELEMENT_SET_NO":999,"REV_AT_EPOCH":1524,"BSTAR":0.00013032505,"MEAN_MOTION_DOT":6.87e-6,"MEAN_MOTION_DDOT":0}]
